{
  "type": "FeatureCollection",
  "features": [
    {
      "type": "Feature",
      "properties": {
        "norad_id": 43783,
        "name": "KAZSTSAT",
        "group": "resource",
        "lat": 81.72130455188834,
        "lon": -30.27933106858495,
        "alt_km": 565.6958061507576,
        "timestamp": "2025-12-25T03:55:55.964013+00:00",
        "meta_object_name": "KAZSTSAT",
        "meta_object_id": "2018-099AB",
        "meta_epoch": "2025-12-24T14:44:04.878240",
        "meta_mean_motion": 14.99370759,
        "meta_eccentricity": 0.0006264,
        "meta_inclination": 97.4515,
        "meta_ra_of_asc_node": 33.2868,
        "meta_arg_of_pericenter": 277.0962,
        "meta_mean_anomaly": 82.9549,
        "meta_ephemeris_type": 0,
        "meta_classification_type": "U",
        "meta_norad_cat_id": 43783,
        "meta_element_set_no": 999,
        "meta_rev_at_epoch": 38514,
        "meta_bstar": 5.1962e-05,
        "meta_mean_motion_dot": 5.8e-06,
        "meta_mean_motion_ddot": 0,
        "tle_line1": "1 43783U 18099AB  25358.61394535  .00000580  00000+0  51962-4 0  9990",
        "tle_line2": "2 43783  97.4515  33.2868 0006264 277.0962  82.9549 14.99370759385141"
      },
      "geometry": {
        "type": "Point",
        "coordinates": [
          -30.27933106858495,
          81.72130455188834
        ]
      }
    },
    {
      "type": "Feature",
      "properties": {
        "norad_id": 43831,
        "name": "SAUDISAT 5A",
        "group": "resource",
        "lat": -55.89811313764846,
        "lon": -131.84934459135266,
        "alt_km": 502.6647689246902,
        "timestamp": "2025-12-25T03:55:55.964024+00:00",
        "meta_object_name": "SAUDISAT 5A",
        "meta_object_id": "2018-102A",
        "meta_epoch": "2025-12-24T20:36:10.702944",
        "meta_mean_motion": 15.25801565,
        "meta_eccentricity": 0.0011087,
        "meta_inclination": 97.3331,
        "meta_ra_of_asc_node": 58.8153,
        "meta_arg_of_pericenter": 38.5271,
        "meta_mean_anomaly": 321.6757,
        "meta_ephemeris_type": 0,
        "meta_classification_type": "U",
        "meta_norad_cat_id": 43831,
        "meta_element_set_no": 999,
        "meta_rev_at_epoch": 38907,
        "meta_bstar": 0.00026461,
        "meta_mean_motion_dot": 6.703e-05,
        "meta_mean_motion_ddot": 0,
        "tle_line1": "1 43831U 18102A   25358.85845721  .00006703  00000+0  26461-3 0  9991",
        "tle_line2": "2 43831  97.3331  58.8153 0011087  38.5271 321.6757 15.25801565389076"
      },
      "geometry": {
        "type": "Point",
        "coordinates": [
          -131.84934459135266,
          -55.89811313764846
        ]
      }
    },
    {
      "type": "Feature",
      "properties": {
        "norad_id": 43833,
        "name": "SAUDISAT 5B",
        "group": "resource",
        "lat": -55.09786420292167,
        "lon": 72.52699416035003,
        "alt_km": 495.1395570874165,
        "timestamp": "2025-12-25T03:55:55.964034+00:00",
        "meta_object_name": "SAUDISAT 5B",
        "meta_object_id": "2018-102C",
        "meta_epoch": "2025-12-24T20:18:29.055168",
        "meta_mean_motion": 15.26148393,
        "meta_eccentricity": 0.0011825,
        "meta_inclination": 97.3426,
        "meta_ra_of_asc_node": 61.5637,
        "meta_arg_of_pericenter": 40.6272,
        "meta_mean_anomaly": 319.5847,
        "meta_ephemeris_type": 0,
        "meta_classification_type": "U",
        "meta_norad_cat_id": 43833,
        "meta_element_set_no": 999,
        "meta_rev_at_epoch": 38918,
        "meta_bstar": 0.00024964,
        "meta_mean_motion_dot": 6.388e-05,
        "meta_mean_motion_ddot": 0,
        "tle_line1": "1 43833U 18102C   25358.84616962  .00006388  00000+0  24964-3 0  9990",
        "tle_line2": "2 43833  97.3426  61.5637 0011825  40.6272 319.5847 15.26148393389188"
      },
      "geometry": {
        "type": "Point",
        "coordinates": [
          72.52699416035003,
          -55.09786420292167
        ]
      }
    },
    {
      "type": "Feature",
      "properties": {
        "norad_id": 44622,
        "name": "GAOFEN-10R",
        "group": "resource",
        "lat": 62.7590574033093,
        "lon": 142.63303451375924,
        "alt_km": 616.0300692263108,
        "timestamp": "2025-12-25T03:55:55.964045+00:00",
        "meta_object_name": "GAOFEN-10R",
        "meta_object_id": "2019-066A",
        "meta_epoch": "2025-12-24T20:55:58.614816",
        "meta_mean_motion": 14.82831624,
        "meta_eccentricity": 0.0007025,
        "meta_inclination": 98.0294,
        "meta_ra_of_asc_node": 306.4268,
        "meta_arg_of_pericenter": 6.1781,
        "meta_mean_anomaly": 353.9517,
        "meta_ephemeris_type": 0,
        "meta_classification_type": "U",
        "meta_norad_cat_id": 44622,
        "meta_element_set_no": 999,
        "meta_rev_at_epoch": 33654,
        "meta_bstar": 0.00020288,
        "meta_mean_motion_dot": 1.588e-05,
        "meta_mean_motion_ddot": 0,
        "tle_line1": "1 44622U 19066A   25358.87220619  .00001588  00000+0  20288-3 0  9992",
        "tle_line2": "2 44622  98.0294 306.4268 0007025   6.1781 353.9517 14.82831624336541"
      },
      "geometry": {
        "type": "Point",
        "coordinates": [
          142.63303451375924,
          62.7590574033093
        ]
      }
    },
    {
      "type": "Feature",
      "properties": {
        "norad_id": 44804,
        "name": "CARTOSAT-3",
        "group": "resource",
        "lat": 74.02832730800226,
        "lon": -94.17958139946859,
        "alt_km": 496.2829104497305,
        "timestamp": "2025-12-25T03:55:55.964056+00:00",
        "meta_object_name": "CARTOSAT-3",
        "meta_object_id": "2019-081A",
        "meta_epoch": "2025-12-24T19:34:22.560096",
        "meta_mean_motion": 15.19250985,
        "meta_eccentricity": 0.001373,
        "meta_inclination": 97.4564,
        "meta_ra_of_asc_node": 58.2443,
        "meta_arg_of_pericenter": 45.471,
        "meta_mean_anomaly": 314.7644,
        "meta_ephemeris_type": 0,
        "meta_classification_type": "U",
        "meta_norad_cat_id": 44804,
        "meta_element_set_no": 999,
        "meta_rev_at_epoch": 33699,
        "meta_bstar": 0.00019747,
        "meta_mean_motion_dot": 4.103e-05,
        "meta_mean_motion_ddot": 0,
        "tle_line1": "1 44804U 19081A   25358.81553889  .00004103  00000+0  19747-3 0  9997",
        "tle_line2": "2 44804  97.4564  58.2443 0013730  45.4710 314.7644 15.19250985336992"
      },
      "geometry": {
        "type": "Point",
        "coordinates": [
          -94.17958139946859,
          74.02832730800226
        ]
      }
    },
    {
      "type": "Feature",
      "properties": {
        "norad_id": 44819,
        "name": "GAOFEN-12 01",
        "group": "resource",
        "lat": -71.50886759127529,
        "lon": 29.358160300301797,
        "alt_km": 634.9909302533333,
        "timestamp": "2025-12-25T03:55:55.964067+00:00",
        "meta_object_name": "GAOFEN-12 01",
        "meta_object_id": "2019-082A",
        "meta_epoch": "2025-12-24T21:46:29.716896",
        "meta_mean_motion": 14.8067083,
        "meta_eccentricity": 0.0002194,
        "meta_inclination": 97.8125,
        "meta_ra_of_asc_node": 4.8689,
        "meta_arg_of_pericenter": 179.3356,
        "meta_mean_anomaly": 180.7859,
        "meta_ephemeris_type": 0,
        "meta_classification_type": "U",
        "meta_norad_cat_id": 44819,
        "meta_element_set_no": 999,
        "meta_rev_at_epoch": 32830,
        "meta_bstar": 6.7235e-05,
        "meta_mean_motion_dot": 4.66e-06,
        "meta_mean_motion_ddot": 0,
        "tle_line1": "1 44819U 19082A   25358.90728839  .00000466  00000+0  67235-4 0  9997",
        "tle_line2": "2 44819  97.8125   4.8689 0002194 179.3356 180.7859 14.80670830328306"
      },
      "geometry": {
        "type": "Point",
        "coordinates": [
          29.358160300301797,
          -71.50886759127529
        ]
      }
    },
    {
      "type": "Feature",
      "properties": {
        "norad_id": 44873,
        "name": "CSG-1",
        "group": "resource",
        "lat": 73.61237542898716,
        "lon": 28.399046512236737,
        "alt_km": 614.5030091437966,
        "timestamp": "2025-12-25T03:55:55.964077+00:00",
        "meta_object_name": "CSG-1",
        "meta_object_id": "2019-092A",
        "meta_epoch": "2025-12-24T19:21:42.560640",
        "meta_mean_motion": 14.82159912,
        "meta_eccentricity": 0.0001472,
        "meta_inclination": 97.8805,
        "meta_ra_of_asc_node": 179.9492,
        "meta_arg_of_pericenter": 85.3037,
        "meta_mean_anomaly": 274.8344,
        "meta_ephemeris_type": 0,
        "meta_classification_type": "U",
        "meta_norad_cat_id": 44873,
        "meta_element_set_no": 999,
        "meta_rev_at_epoch": 32564,
        "meta_bstar": 6.8411e-05,
        "meta_mean_motion_dot": 4.93e-06,
        "meta_mean_motion_ddot": 0,
        "tle_line1": "1 44873U 19092A   25358.80674260  .00000493  00000+0  68411-4 0  9992",
        "tle_line2": "2 44873  97.8805 179.9492 0001472  85.3037 274.8344 14.82159912325640"
      },
      "geometry": {
        "type": "Point",
        "coordinates": [
          28.399046512236737,
          73.61237542898716
        ]
      }
    }
  ]
}